start=new Date('2023-04-10T00:00:00.000Z').valueOf();
sats=[{"BSTAR":"0.00008593200000","ECCENTRICITY":"0.00014840","MEAN_MOTION_DDOT":"0.0000000000000","INCLINATION":"43.0033","GP_ID":"229812322","REV_AT_EPOCH":"1139","NORAD_CAT_ID":"55369","ELEMENT_SET_NO":"999","TIME_SYSTEM":"UTC","FILE":"3884641","MEAN_MOTION_DOT":"0.00000957","PERIOD":"95.838","MEAN_ELEMENT_THEORY":"SGP4","LAUNCH_DATE":"2023-01-26","OBJECT_NAME":"STARLINK-5644","DECAY_DATE":null,"RA_OF_ASC_NODE":"338.8274","SEMIMAJOR_AXIS":"6937.199","EPOCH":"2023-04-09T22:28:36.326784","TLE_LINE2":"2 55369  43.0033 338.8274 0001484 247.9004 112.1681 15.02541639 11391","COUNTRY_CODE":"US","CLASSIFICATION_TYPE":"U","MEAN_MOTION":"15.02541639","TLE_LINE1":"1 55369U 23013AQ  23099.93653156  .00000957  00000-0  85932-4 0  9990","EPHEMERIS_TYPE":"0","CENTER_NAME":"EARTH","REF_FRAME":"TEME","OBJECT_ID":"2023-013AQ","APOAPSIS":"560.094","MEAN_ANOMALY":"112.1681","RCS_SIZE":"LARGE","SITE":"AFETR","OBJECT_TYPE":"PAYLOAD","PERIAPSIS":"558.035","ARG_OF_PERICENTER":"247.9004"},{"BSTAR":"0.00140720000000","ECCENTRICITY":"0.00017220","INCLINATION":"43.0021","MEAN_MOTION_DDOT":"0.0000000000000","GP_ID":"229813066","REV_AT_EPOCH":"1139","NORAD_CAT_ID":"55370","TIME_SYSTEM":"UTC","ELEMENT_SET_NO":"999","MEAN_MOTION_DOT":"0.00018860","FILE":"3884641","PERIOD":"95.838","MEAN_ELEMENT_THEORY":"SGP4","OBJECT_NAME":"STARLINK-5027","LAUNCH_DATE":"2023-01-26","DECAY_DATE":null,"RA_OF_ASC_NODE":"338.8645","EPOCH":"2023-04-09T22:35:00.681504","SEMIMAJOR_AXIS":"6937.195","TLE_LINE2":"2 55370  43.0021 338.8645 0001722 274.8377  85.2269 15.02542924 11399","CLASSIFICATION_TYPE":"U","COUNTRY_CODE":"US","MEAN_MOTION":"15.02542924","TLE_LINE1":"1 55370U 23013AR  23099.94098011  .00018860  00000-0  14072-2 0  9993","EPHEMERIS_TYPE":"0","CENTER_NAME":"EARTH","OBJECT_ID":"2023-013AR","APOAPSIS":"560.255","REF_FRAME":"TEME","RCS_SIZE":"LARGE","MEAN_ANOMALY":"85.2269","SITE":"AFETR","OBJECT_TYPE":"PAYLOAD","PERIAPSIS":"557.866","ARG_OF_PERICENTER":"274.8377"},{"EPHEMERIS_TYPE":"0","CENTER_NAME":"EARTH","TLE_LINE2":"2 55371  43.0037 338.7617 0001404 262.8161  97.2522 15.02542338 12317","CLASSIFICATION_TYPE":"U","COUNTRY_CODE":"US","MEAN_MOTION":"15.02542338","TLE_LINE1":"1 55371U 23013AS  23099.92765422 -.00000426  00000-0 -16491-4 0  9999","SITE":"AFETR","OBJECT_TYPE":"PAYLOAD","PERIAPSIS":"558.088","ARG_OF_PERICENTER":"262.8161","REF_FRAME":"TEME","OBJECT_ID":"2023-013AS","APOAPSIS":"560.036","MEAN_ANOMALY":"97.2522","RCS_SIZE":"LARGE","ECCENTRICITY":"0.00014040","INCLINATION":"43.0037","MEAN_MOTION_DDOT":"0.0000000000000","GP_ID":"229811328","REV_AT_EPOCH":"1231","NORAD_CAT_ID":"55371","BSTAR":"-0.00001649100000","OBJECT_NAME":"STARLINK-5590","LAUNCH_DATE":"2023-01-26","DECAY_DATE":null,"RA_OF_ASC_NODE":"338.7617","SEMIMAJOR_AXIS":"6937.197","EPOCH":"2023-04-09T22:15:49.324608","ELEMENT_SET_NO":"999","TIME_SYSTEM":"UTC","FILE":"3884641","MEAN_MOTION_DOT":"-0.00000426","PERIOD":"95.838","MEAN_ELEMENT_THEORY":"SGP4"},{"REF_FRAME":"TEME","OBJECT_ID":"2023-013AT","APOAPSIS":"560.022","MEAN_ANOMALY":"82.7900","RCS_SIZE":"LARGE","SITE":"AFETR","PERIAPSIS":"558.102","OBJECT_TYPE":"PAYLOAD","ARG_OF_PERICENTER":"277.2785","TLE_LINE2":"2 55372  43.0030 338.8028 0001384 277.2785  82.7900 15.02542237 11391","CLASSIFICATION_TYPE":"U","COUNTRY_CODE":"US","MEAN_MOTION":"15.02542237","TLE_LINE1":"1 55372U 23013AT  23099.93320817 -.00001946  00000-0 -12897-3 0  9999","EPHEMERIS_TYPE":"0","CENTER_NAME":"EARTH","ELEMENT_SET_NO":"999","TIME_SYSTEM":"UTC","FILE":"3884641","MEAN_MOTION_DOT":"-0.00001946","PERIOD":"95.838","MEAN_ELEMENT_THEORY":"SGP4","LAUNCH_DATE":"2023-01-26","OBJECT_NAME":"STARLINK-5568","DECAY_DATE":null,"RA_OF_ASC_NODE":"338.8028","SEMIMAJOR_AXIS":"6937.197","EPOCH":"2023-04-09T22:23:49.185888","BSTAR":"-0.00012897000000","ECCENTRICITY":"0.00013840","MEAN_MOTION_DDOT":"0.0000000000000","INCLINATION":"43.0030","GP_ID":"229811573","REV_AT_EPOCH":"1139","NORAD_CAT_ID":"55372"},{"MEAN_MOTION":"15.02529954","TLE_LINE1":"1 55373U 23013AU  23099.92544322  .00000654  00000-0  63518-4 0  9998","TLE_LINE2":"2 55373  43.0037 338.7465 0001767 272.5012  87.5628 15.02529954 11390","CLASSIFICATION_TYPE":"U","COUNTRY_CODE":"US","CENTER_NAME":"EARTH","EPHEMERIS_TYPE":"0","RCS_SIZE":"LARGE","MEAN_ANOMALY":"87.5628","APOAPSIS":"560.326","OBJECT_ID":"2023-013AU","REF_FRAME":"TEME","OBJECT_TYPE":"PAYLOAD","PERIAPSIS":"557.874","ARG_OF_PERICENTER":"272.5012","SITE":"AFETR","BSTAR":"0.00006351800000","REV_AT_EPOCH":"1139","GP_ID":"229812823","NORAD_CAT_ID":"55373","ECCENTRICITY":"0.00017670","INCLINATION":"43.0037","MEAN_MOTION_DDOT":"0.0000000000000","PERIOD":"95.838","MEAN_ELEMENT_THEORY":"SGP4","TIME_SYSTEM":"UTC","ELEMENT_SET_NO":"999","MEAN_MOTION_DOT":"0.00000654","FILE":"3884641","RA_OF_ASC_NODE":"338.7465","EPOCH":"2023-04-09T22:12:38.294208","SEMIMAJOR_AXIS":"6937.235","LAUNCH_DATE":"2023-01-26","OBJECT_NAME":"STARLINK-5581","DECAY_DATE":null},{"ECCENTRICITY":"0.00014180","MEAN_MOTION_DDOT":"0.0000000000000","INCLINATION":"43.0018","REV_AT_EPOCH":"1139","GP_ID":"229812566","NORAD_CAT_ID":"55374","BSTAR":"0.00013376000000","LAUNCH_DATE":"2023-01-26","OBJECT_NAME":"STARLINK-5578","DECAY_DATE":null,"RA_OF_ASC_NODE":"338.7859","SEMIMAJOR_AXIS":"6937.215","EPOCH":"2023-04-09T22:20:37.445280","ELEMENT_SET_NO":"999","TIME_SYSTEM":"UTC","MEAN_MOTION_DOT":"0.00001604","FILE":"3884641","PERIOD":"95.838","MEAN_ELEMENT_THEORY":"SGP4","EPHEMERIS_TYPE":"0","CENTER_NAME":"EARTH","TLE_LINE2":"2 55374  43.0018 338.7859 0001418 263.9633  96.1047 15.02536496 11393","COUNTRY_CODE":"US","CLASSIFICATION_TYPE":"U","MEAN_MOTION":"15.02536496","TLE_LINE1":"1 55374U 23013AV  23099.93098895  .00001604  00000-0  13376-3 0  9991","SITE":"AFETR","OBJECT_TYPE":"PAYLOAD","PERIAPSIS":"558.096","ARG_OF_PERICENTER":"263.9633","REF_FRAME":"TEME","APOAPSIS":"560.064","OBJECT_ID":"2023-013AV","MEAN_ANOMALY":"96.1047","RCS_SIZE":"LARGE"},{"INCLINATION":"43.0024","MEAN_MOTION_DDOT":"0.0000000000000","ECCENTRICITY":"0.00019750","NORAD_CAT_ID":"55375","REV_AT_EPOCH":"1139","GP_ID":"229811829","BSTAR":"0.00070937000000","DECAY_DATE":null,"LAUNCH_DATE":"2023-01-26","OBJECT_NAME":"STARLINK-5588","EPOCH":"2023-04-09T22:04:38.296416","SEMIMAJOR_AXIS":"6937.163","RA_OF_ASC_NODE":"338.7036","MEAN_MOTION_DOT":"0.00009396","FILE":"3884641","TIME_SYSTEM":"UTC","ELEMENT_SET_NO":"999","MEAN_ELEMENT_THEORY":"SGP4","PERIOD":"95.837","EPHEMERIS_TYPE":"0","CENTER_NAME":"EARTH","CLASSIFICATION_TYPE":"U","COUNTRY_CODE":"US","TLE_LINE2":"2 55375  43.0024 338.7036 0001975 265.0575  95.0042 15.02553414 11396","TLE_LINE1":"1 55375U 23013AW  23099.91988769  .00009396  00000-0  70937-3 0  9990","MEAN_MOTION":"15.02553414","SITE":"AFETR","ARG_OF_PERICENTER":"265.0575","PERIAPSIS":"557.658","OBJECT_TYPE":"PAYLOAD","OBJECT_ID":"2023-013AW","APOAPSIS":"560.398","REF_FRAME":"TEME","RCS_SIZE":"LARGE","MEAN_ANOMALY":"95.0042"},{"PERIAPSIS":"395.409","OBJECT_TYPE":"PAYLOAD","ARG_OF_PERICENTER":"273.5823","SITE":"AFETR","RCS_SIZE":"LARGE","MEAN_ANOMALY":"226.1093","OBJECT_ID":"2023-013AX","APOAPSIS":"396.491","REF_FRAME":"TEME","CENTER_NAME":"EARTH","EPHEMERIS_TYPE":"0","MEAN_MOTION":"15.57136933","TLE_LINE1":"1 55376U 23013AX  23099.91667824 -.00642905  00000-0 -93391-2 0  9996","TLE_LINE2":"2 55376  42.9997 320.0474 0000799 273.5823 226.1093 15.57136933  1303","COUNTRY_CODE":"US","CLASSIFICATION_TYPE":"U","RA_OF_ASC_NODE":"320.0474","EPOCH":"2023-04-09T22:00:00.999936","SEMIMAJOR_AXIS":"6774.085","LAUNCH_DATE":"2023-01-26","OBJECT_NAME":"STARLINK-5586","DECAY_DATE":null,"PERIOD":"92.477","MEAN_ELEMENT_THEORY":"SGP4","TIME_SYSTEM":"UTC","ELEMENT_SET_NO":"999","FILE":"3884641","MEAN_MOTION_DOT":"-0.00642905","GP_ID":"229812074","REV_AT_EPOCH":"130","NORAD_CAT_ID":"55376","ECCENTRICITY":"0.00007990","INCLINATION":"42.9997","MEAN_MOTION_DDOT":"0.0000000000000","BSTAR":"-0.00933910000000"},{"ECCENTRICITY":"0.00014690","MEAN_MOTION_DDOT":"0.0000000000000","INCLINATION":"43.0022","REV_AT_EPOCH":"1181","GP_ID":"229780919","NORAD_CAT_ID":"55377","BSTAR":"0.00053983000000","OBJECT_NAME":"STARLINK-5567","LAUNCH_DATE":"2023-01-26","DECAY_DATE":null,"RA_OF_ASC_NODE":"338.9635","EPOCH":"2023-04-09T20:09:44.091360","SEMIMAJOR_AXIS":"6937.199","TIME_SYSTEM":"UTC","ELEMENT_SET_NO":"999","FILE":"3884393","MEAN_MOTION_DOT":"0.00007097","PERIOD":"95.838","MEAN_ELEMENT_THEORY":"SGP4","EPHEMERIS_TYPE":"0","CENTER_NAME":"EARTH","TLE_LINE2":"2 55377  43.0022 338.9635 0001469 273.1171  86.9503 15.02541709 11815","COUNTRY_CODE":"US","CLASSIFICATION_TYPE":"U","MEAN_MOTION":"15.02541709","TLE_LINE1":"1 55377U 23013AY  23099.84009365  .00007097  00000-0  53983-3 0  9998","SITE":"AFETR","OBJECT_TYPE":"PAYLOAD","PERIAPSIS":"558.045","ARG_OF_PERICENTER":"273.1171","APOAPSIS":"560.083","OBJECT_ID":"2023-013AY","REF_FRAME":"TEME","RCS_SIZE":"LARGE","MEAN_ANOMALY":"86.9503"},{"PERIOD":"95.837","MEAN_ELEMENT_THEORY":"SGP4","TIME_SYSTEM":"UTC","ELEMENT_SET_NO":"999","FILE":"3884641","MEAN_MOTION_DOT":"-0.00001248","RA_OF_ASC_NODE":"338.7315","EPOCH":"2023-04-09T22:09:25.529760","SEMIMAJOR_AXIS":"6937.181","LAUNCH_DATE":"2023-01-26","OBJECT_NAME":"STARLINK-5572","DECAY_DATE":null,"BSTAR":"-0.00007730300000","REV_AT_EPOCH":"1139","GP_ID":"229813067","NORAD_CAT_ID":"55378","ECCENTRICITY":"0.00020500","MEAN_MOTION_DDOT":"0.0000000000000","INCLINATION":"43.0050","RCS_SIZE":"LARGE","MEAN_ANOMALY":"74.9715","APOAPSIS":"560.468","OBJECT_ID":"2023-013AZ","REF_FRAME":"TEME","OBJECT_TYPE":"PAYLOAD","PERIAPSIS":"557.623","ARG_OF_PERICENTER":"285.0901","SITE":"AFETR","MEAN_MOTION":"15.02547685","TLE_LINE1":"1 55378U 23013AZ  23099.92321215 -.00001248  00000-0 -77303-4 0  9996","TLE_LINE2":"2 55378  43.0050 338.7315 0002050 285.0901  74.9715 15.02547685 11394","COUNTRY_CODE":"US","CLASSIFICATION_TYPE":"U","CENTER_NAME":"EARTH","EPHEMERIS_TYPE":"0"}];
